CAS-2T & KS-1Q          
1 41847U 16066G   21100.50418389  .00000116  00000-0  26908-4 0  9992
2 41847  98.6088 159.3251 0366320  63.3003 300.5194 14.38171876232113
NAYIF-1 (EO-88)         
1 42017U 17008BX  21101.17543528  .00002210  00000-0  84013-4 0  9995
2 42017  97.3214 169.9764 0005708   5.0703 355.0594 15.27822491230983
ZHUHAI-1 02 (CAS-4B)    
1 42759U 17034B   21101.09124677  .00000422  00000-0  38757-4 0  9995
2 42759  43.0168 191.3982 0007791 100.8342 320.9550 15.10148442210968
ZHUHAI-1 01 (CAS-4A)    
1 42761U 17034D   21101.08622287  .00000406  00000-0  37761-4 0  9993
2 42761  43.0174 190.5287 0008143 103.1564 320.1141 15.10229659210969
MAX VALIER SAT          
1 42778U 17036P   21101.11327027  .00001279  00000-0  56513-4 0  9996
2 42778  97.2630 151.9111 0013396  59.3612 300.8944 15.23394530211034
RADFXSAT (FOX-1B)       
1 43017U 17073E   21100.97233093  .00000532  00000-0  46151-4 0  9994
2 43017  97.7118   7.6276 0255799 160.2195 200.9161 14.79421466183149
FOX-1D (AO-92)          
1 43137U 18004AC  21101.14889930  .00001503  00000-0  63023-4 0  9995
2 43137  97.4106 175.8650 0010570  89.5205 270.7244 15.25020973180392
DIWATA-2B               
1 43678U 18084H   21101.10828458  .00000349  00000-0  40370-4 0  9994
2 43678  97.9118 226.0834 0008375 275.2620  84.7657 14.91730548133395
ES'HAIL 2               
1 43700U 18090A   21101.02271427  .00000133  00000-0  00000+0 0  9998
2 43700   0.0239 210.4391 0002357 205.8028 177.1908  1.00266497  8930
FOX-1CLIFF (AO-95)      
1 43770U 18099N   21101.13037632  .00000554  00000-0  55429-4 0  9991
2 43770  97.6695 172.7909 0013001 283.6223  76.3549 14.95253844128393
ITASAT 1                
1 43786U 18099AE  21100.99608621  .00000412  00000-0  42250-4 0  9994
2 43786  97.6713 173.2905 0013658 276.5291  83.4375 14.95556513128404
JY1SAT (JO-97)          
1 43803U 18099AX  21100.63627955 -.00000002  00000-0  49357-5 0  9998
2 43803  97.6680 172.6988 0013568 278.4524  81.5159 14.95791736128352
UWE-4                   
1 43880U 18111E   21100.73228481  .00000206  00000-0  23043-4 0  9998
2 43880  97.6905   9.6095 0011759 337.1394  22.9302 14.96791632124950
PSAT2 (NO-104)          
1 44354U 19036R   21100.68088982  .00013818  00000-0  18446-3 0  9999
2 44354  28.5304 218.3341 0331938 262.1140  94.1657 15.11797525 98708
BRICSAT2 (NO-103)       
1 44355U 19036S   21100.53231892  .00025654  00000-0  29457-3 0  9999
2 44355  28.5267 184.5367 0278123 317.2555  40.6716 15.25726077 99024
JAISAT-1                
1 44419U 19038F   21100.35047071  .00001069  00000-0  63059-4 0  9997
2 44419  97.5818  65.3429 0020909 182.6494 177.4630 15.13563690 97491
DUCHIFAT-3              
1 44854U 19089C   21101.13734622  .00000425  00000-0  40403-4 0  9991
2 44854  36.9646 138.7025 0009301 314.5384  45.4606 14.99413550 72991
RS-44 & BREEZE-KM R/B   
1 44909U 19096E   21100.76433309  .00000043  00000-0  13320-3 0  9999
2 44909  82.5219 157.7910 0216290 251.2504 106.5018 12.79709430 60182
ORBITAL FACTORY 2 (OF-2)
1 45113U 19071C   21100.78617430  .00002698  00000-0  88553-4 0  9990
2 45113  51.6441   5.4889 0012688  51.4920 308.7199 15.35260283 66775
HUSKYSAT-1 (HO-107)     
1 45119U 19071J   21101.12496701  .00003219  00000-0  10330-3 0  9998
2 45119  51.6437   3.2487 0012009  49.5891 310.6137 15.35327531 66828
BY70-2                  
1 45857U 20042B   21101.09969653  .00001081  00000-0  16111-3 0  9992
2 45857  97.9858 177.5495 0012693  76.2318 284.0319 14.76835010 41606
SALSAT                  
1 46495U 20068K   21100.90671013  .00001013  00000-0  78892-4 0  9998
2 46495  97.6871  38.8219 0016442 303.8532  56.1131 15.03399762 29182
BY70-3                  
1 46839U 20079N   21101.10499486  .00002945  00000-0  94058-4 0  9994
2 46839  97.2442 176.3048 0008985  89.3247 358.2962 15.33220476 23881
RADFXSAT-2 (AO-109)     
1 47311U 21002C   21101.13321700  .00000584  00000-0  37745-4 0  9990
2 47311  60.6858 183.1662 0025772   7.7747 352.3733 15.21435256 12635
UVSQ-SAT                
1 47438U 21006AB  21101.12446010  .00000897  00000-0  54472-4 0  9998
2 47438  97.4941 163.5356 0011949 337.5379  22.5328 15.12983522 11879
